OBJECT B                
1 51825U 22019B   25219.62398994  .00020398  00000+0  47005-3 0  9994
2 51825  97.3830 296.9298 0009850 187.9299 172.1795 15.42576283190998
